ComplaintID,BuildingID,BoroughID,Borough,HouseNumber,StreetName,Zip,Block,Lot,Apartment,CommunityBoard,ReceivedDate,StatusID,Status,StatusDate
5005982,88674,2,BRONX,625,JEFFERSON PLACE,10456,2935,1,A,3,01/06/2010,2,CLOSE,01/13/2010
5009467,28071,1,MANHATTAN,204,ST NICHOLAS AVENUE,10027,1926,7,5,10,01/08/2010,2,CLOSE,01/20/2010
5016151,28071,1,MANHATTAN,204,ST NICHOLAS AVENUE,10027,1926,7,5,10,01/11/2010,2,CLOSE,01/25/2010
5036051,420976,4,QUEENS,136-10,34 AVENUE,11354,4951,8,6E,7,01/24/2010,2,CLOSE,02/20/2015
5053473,811171,4,QUEENS,3-06,ASTORIA BOULEVARD,11102,490,101,5G,1,02/01/2010,2,CLOSE,02/20/2015
5053544,806482,2,BRONX,271,EAST 143 STREET,10451,2324,1,4D,1,02/01/2010,2,CLOSE,02/20/2015
5060448,231197,3,BROOKLYN,2381,DEAN STREET,11233,1442,66,11,16,02/05/2010,2,CLOSE,02/10/2010
5067404,231715,3,BROOKLYN,1259,DECATUR STREET,11207,3430,49,1L,4,02/09/2010,2,CLOSE,02/24/2010
5090371,806327,2,BRONX,1440,BRONX RIVER AVENUE,10472,3886,2,BLDG,9,02/26/2010,2,CLOSE,02/20/2015
5105011,42023,1,MANHATTAN,235,WEST 146 STREET,10039,2032,10,15A,10,03/10/2010,2,CLOSE,03/24/2010
5116199,42023,1,MANHATTAN,235,WEST 146 STREET,10039,2032,10,15A,10,03/18/2010,2,CLOSE,04/04/2010
5125729,806645,2,BRONX,1165,EAST 229 STREET,10466,4905,1,BLDG,12,03/27/2010,2,CLOSE,02/20/2015
5140530,806246,2,BRONX,120,WEST 176 STREET,10453,2878,44,BLDG,5,04/12/2010,2,CLOSE,02/20/2015
5174699,330826,3,BROOKLYN,25,MADISON STREET,11238,1987,71,2F,3,05/20/2010,2,CLOSE,05/28/2010
5177263,42023,1,MANHATTAN,235,WEST 146 STREET,10039,2032,10,A,10,05/24/2010,2,CLOSE,06/03/2010
5177295,42023,1,MANHATTAN,235,WEST 146 STREET,10039,2032,10,8,10,05/25/2010,2,CLOSE,06/17/2010
5193776,42023,1,MANHATTAN,235,WEST 146 STREET,10039,2032,10,3B,10,06/21/2010,2,CLOSE,07/07/2010
5196236,330826,3,BROOKLYN,25,MADISON STREET,11238,1987,71,2F,3,06/24/2010,2,CLOSE,06/30/2010
5202902,42023,1,MANHATTAN,235,WEST 146 STREET,10039,2032,10,1A,10,07/06/2010,2,CLOSE,07/08/2010
5212295,806411,2,BRONX,601,CROTONA PARK NO,10457,2944,1,2A,6,07/20/2010,2,CLOSE,02/20/2015
5213755,42019,1,MANHATTAN,225,WEST 146 STREET,10039,2032,13,B,10,07/21/2010,1,OPEN,07/21/2010
5215298,720965,5,STATEN ISLAND,145,CASSIDY PLACE,10301,71,25,3,1,07/23/2010,2,CLOSE,02/20/2015
5217271,806411,2,BRONX,601,CROTONA PARK NO,10457,2944,1,2B,6,07/27/2010,2,CLOSE,02/20/2015
5221445,231197,3,BROOKLYN,2381,DEAN STREET,11233,1442,66,11,16,08/03/2010,2,CLOSE,08/11/2010
5224908,330826,3,BROOKLYN,25,MADISON STREET,11238,1987,71,2F,3,08/09/2010,2,CLOSE,08/16/2010
5242511,38865,1,MANHATTAN,239,WEST 120 STREET,10027,1926,12,BSMT,10,09/07/2010,2,CLOSE,09/28/2010
5290458,8434,1,MANHATTAN,5210,BROADWAY,10463,2215,116,9J,8,10/29/2010,2,CLOSE,02/20/2015
5293187,3552,1,MANHATTAN,2320,ADAM C POWELL BOULEVARD,10030,1942,29,NA,10,10/30/2010,2,CLOSE,03/14/2018
5321869,806158,1,MANHATTAN,2989,8 AVENUE,10039,2106,3,14J,10,11/13/2010,2,CLOSE,02/20/2015
5321628,811814,4,QUEENS,82-10,ROCKAWAY BEACH BOULEVARD,11693,16114,2,BLDG,14,11/13/2010,2,CLOSE,02/20/2015
5321822,811641,4,QUEENS,67-39,KISSENA BOULEVARD,11367,6792,30,2B,8,11/13/2010,2,CLOSE,02/20/2015
5331478,811907,4,QUEENS,41-10,VERNON BOULEVARD,11101,465,1,1D,1,11/19/2010,2,CLOSE,02/20/2015
5335486,19877,1,MANHATTAN,4,EAST 117 STREET,10035,1622,17,6D,11,11/22/2010,2,CLOSE,02/20/2015
5355766,221568,3,BROOKLYN,315,CLASSON AVENUE,11205,1938,1,10A,3,12/04/2010,2,CLOSE,02/20/2015
5357925,804792,1,MANHATTAN,1365,FIFTH AVENUE,10029,1618,1,10L,11,12/05/2010,2,CLOSE,02/20/2015
5360872,811640,4,QUEENS,67-35,KISSENA BOULEVARD,11367,6792,30,4C,8,12/06/2010,2,CLOSE,02/20/2015
5363433,809786,3,BROOKLYN,2292,WEST 8 STREET,11223,7140,16,4E,13,12/07/2010,2,CLOSE,02/20/2015
5381736,379321,3,BROOKLYN,33,MARCUS GARVEY BOULEVARD,11206,1580,1,2C,3,12/14/2010,2,CLOSE,02/20/2015
5383071,376480,3,BROOKLYN,1522,STERLING PLACE,11213,1379,39,4B,8,12/14/2010,2,CLOSE,02/20/2015
5388899,807726,3,BROOKLYN,3144,BAY VIEW AVENUE,11224,6964,2,1F,13,12/16/2010,2,CLOSE,02/20/2015
5404547,811908,4,QUEENS,41-15,VERNON BOULEVARD,11101,465,1,TOP,1,12/23/2010,2,CLOSE,02/20/2015
5437779,40670,1,MANHATTAN,269,WEST 134 STREET,10030,1940,7,8,10,01/12/2011,2,CLOSE,02/09/2011
5457630,351270,3,BROOKLYN,65,PARK AVENUE,11205,2025,150,4C,3,01/22/2011,2,CLOSE,02/20/2015
5467437,42023,1,MANHATTAN,235,WEST 146 STREET,10039,2032,10,1A,10,01/26/2011,2,CLOSE,02/01/2011
5467739,805338,1,MANHATTAN,43,STANTON STREET,10002,421,52,BLDG,3,01/26/2011,2,CLOSE,02/20/2015
5476901,40670,1,MANHATTAN,269,WEST 134 STREET,10030,1940,7,4,10,02/01/2011,2,CLOSE,02/05/2011
5487595,809736,3,BROOKLYN,77,VANDALIA AVENUE,11239,4431,100,10E,5,02/08/2011,2,CLOSE,02/20/2015
5506632,805086,1,MANHATTAN,51,MANHATTAN AVENUE,10025,1836,1,2A,7,02/21/2011,2,CLOSE,02/20/2015
5512999,23493,1,MANHATTAN,244,LENOX AVENUE,10027,1721,3,14,10,02/25/2011,2,CLOSE,03/22/2011
5531806,394748,3,BROOKLYN,3021,WEST 25 STREET,11224,7070,1,8B,13,03/11/2011,2,CLOSE,02/20/2015
5551520,42023,1,MANHATTAN,235,WEST 146 STREET,10039,2032,10,1A,10,03/28/2011,2,CLOSE,04/02/2011
5561190,806921,2,BRONX,2830,SCHLEY AVENUE,10465,5564,1,1C,10,04/05/2011,2,CLOSE,02/20/2015
5581829,89503,2,BRONX,935,KELLY STREET,10459,2703,18,5G,2,04/26/2011,2,CLOSE,10/14/2011
5581935,806411,2,BRONX,601,CROTONA PARK NO,10457,2944,1,BLDG,6,04/26/2011,2,CLOSE,02/20/2015
5605240,40670,1,MANHATTAN,269,WEST 134 STREET,10030,1940,7,6,10,05/26/2011,2,CLOSE,06/06/2011
5618779,89503,2,BRONX,935,KELLY STREET,10459,2703,18,4E,2,06/15/2011,2,CLOSE,10/14/2011
5618626,806411,2,BRONX,601,CROTONA PARK NO,10457,2944,1,6D,6,06/15/2011,2,CLOSE,02/20/2015
5677118,21819,1,MANHATTAN,452,FT WASHINGTON AVENUE,10033,2176,100,54,12,09/02/2011,2,CLOSE,09/15/2011
5683073,803904,1,MANHATTAN,2406,8 AVENUE,10027,1933,1,1A,10,09/12/2011,2,CLOSE,02/20/2015
5689242,394747,3,BROOKLYN,2926,WEST 25 STREET,11224,7053,12,706E,13,09/21/2011,2,CLOSE,02/20/2015
5695317,21819,1,MANHATTAN,452,FT WASHINGTON AVENUE,10033,2176,100,52,12,09/29/2011,2,CLOSE,10/18/2011
5719736,877718,4,QUEENS,67-28,PARSONS BOULEVARD,11365,6792,30,1C,8,10/26/2011,2,CLOSE,02/20/2015
5721550,29016,1,MANHATTAN,273,WADSWORTH AVENUE,10033,2166,69,52,12,10/27/2011,2,CLOSE,10/28/2011
5733660,89497,2,BRONX,916,KELLY STREET,10459,2711,6,1B,2,10/31/2011,2,CLOSE,11/14/2011
5735096,847222,1,MANHATTAN,11-15,FDR DRIVE,10009,367,1,14G,3,10/31/2011,2,CLOSE,02/20/2015
5735703,21819,1,MANHATTAN,452,FT WASHINGTON AVENUE,10033,2176,100,54,12,11/01/2011,2,CLOSE,11/13/2011
5737879,88674,2,BRONX,625,JEFFERSON PLACE,10456,2935,1,1A,3,11/02/2011,2,CLOSE,11/16/2011
5740187,445903,4,QUEENS,39-23,57 STREET,11377,1228,38,3D,2,11/03/2011,2,CLOSE,11/10/2011
5745878,806084,1,MANHATTAN,49,WEST 225 STREET,10463,2215,116,22G,8,11/06/2011,2,CLOSE,02/20/2015
5747032,702536,4,QUEENS,40-01,VERNON BOULEVARD,11101,470,1,2A,1,11/07/2011,2,CLOSE,02/20/2015
5749801,88674,2,BRONX,625,JEFFERSON PLACE,10456,2935,1,2C,3,11/09/2011,2,CLOSE,11/16/2011
5753615,805761,1,MANHATTAN,133,WEST 90 STREET,10024,1221,7,16G,7,11/12/2011,2,CLOSE,02/20/2015
5757720,445902,4,QUEENS,39-21,57 STREET,11377,1228,40,C3,2,11/16/2011,2,CLOSE,11/18/2011
5759627,21819,1,MANHATTAN,452,FT WASHINGTON AVENUE,10033,2176,100,54,12,11/17/2011,2,CLOSE,11/18/2011
5759266,10490,1,MANHATTAN,245,EAST 2 STREET,10009,384,27,3W,3,11/17/2011,2,CLOSE,11/18/2011
5759511,10490,1,MANHATTAN,245,EAST 2 STREET,10009,384,27,6,3,11/17/2011,2,CLOSE,11/18/2011
5759488,808573,3,BROOKLYN,215,HOYT STREET,11217,404,1,8E,6,11/17/2011,2,CLOSE,02/20/2015
5761117,811814,4,QUEENS,82-10,ROCKAWAY BEACH BOULEVARD,11693,16114,2,BLDG,14,11/18/2011,2,CLOSE,02/20/2015
5774290,10490,1,MANHATTAN,245,EAST 2 STREET,10009,384,27,3W,3,11/28/2011,2,CLOSE,12/22/2011
5782703,864103,1,MANHATTAN,50,PALADINO AVENUE,10035,1808,1,9F,11,12/03/2011,2,CLOSE,02/20/2015
5787572,804778,1,MANHATTAN,60,ESSEX STREET,10002,351,1,10D,3,12/07/2011,2,CLOSE,02/20/2015
5796627,807823,3,BROOKLYN,2356,BRAGG STREET,11229,7408,1,BLDG,15,12/12/2011,2,CLOSE,02/20/2015
5819673,811814,4,QUEENS,82-10,ROCKAWAY BEACH BOULEVARD,11693,16114,2,4E,14,12/27/2011,2,CLOSE,02/20/2015
5826151,806981,2,BRONX,2595,THIRD AVENUE,10451,2325,1,12H,1,12/30/2011,2,CLOSE,02/20/2015
5831460,811151,4,QUEENS,54-75,ALMEDA AVENUE,11692,16002,1,BLDG,14,01/03/2012,2,CLOSE,02/20/2015
5830351,51011,2,BRONX,1057,BOYNTON AVENUE,10472,3714,36,6E,9,01/03/2012,2,CLOSE,02/20/2015
5842276,804785,1,MANHATTAN,819,F D R DRIVE,10009,362,10,BLDG,3,01/08/2012,2,CLOSE,02/20/2015
5843548,804860,1,MANHATTAN,99,FT WASHINGTON AVENUE,10032,2136,235,2G,12,01/09/2012,2,CLOSE,02/20/2015
5890154,807123,2,BRONX,2415,WILLIAMSBRIDGE ROAD,10469,4444,1,4D,11,02/06/2012,2,CLOSE,02/20/2015
5914792,809107,3,BROOKLYN,1620,PACIFIC STREET,11213,1341,12,1A,8,02/24/2012,2,CLOSE,02/20/2015
5920453,806084,1,MANHATTAN,49,WEST 225 STREET,10463,2215,116,BLDG,8,02/29/2012,2,CLOSE,02/20/2015
5969793,811171,4,QUEENS,3-06,ASTORIA BOULEVARD,11102,490,101,6A,1,04/23/2012,2,CLOSE,02/20/2015
5982353,205716,3,BROOKLYN,1516,BEDFORD AVENUE,11216,1252,80,3D,8,05/04/2012,2,CLOSE,05/30/2012
5992449,808723,3,BROOKLYN,2726,LINDEN BOULEVARD,11208,4488,1,5E,5,05/18/2012,2,CLOSE,02/20/2015
6016040,50364,2,BRONX,1096,BOSTON ROAD,10456,2634,1,2D,3,06/19/2012,2,CLOSE,02/01/2017
6016665,806084,1,MANHATTAN,49,WEST 225 STREET,10463,2215,116,12K,8,06/20/2012,2,CLOSE,02/20/2015
6023881,806084,1,MANHATTAN,49,WEST 225 STREET,10463,2215,116,5A,8,07/01/2012,2,CLOSE,02/20/2015
6030339,56839,2,BRONX,1236,CLAY AVENUE,10456,2427,6,B,4,07/10/2012,2,CLOSE,02/20/2015
6031104,62693,2,BRONX,445,EAST 137 STREET,10454,2282,57,BLDG,1,07/11/2012,2,CLOSE,02/20/2015
6038940,290658,3,BROOKLYN,228,EVERGREEN AVENUE,11221,3215,29,1,4,07/20/2012,2,CLOSE,08/24/2017
6040636,396124,3,BROOKLYN,1113,WILLOUGHBY AVENUE,11237,3197,52,2L,4,07/23/2012,2,CLOSE,07/30/2012
6051917,56840,2,BRONX,1240,CLAY AVENUE,10456,2427,7,C,4,08/05/2012,2,CLOSE,02/20/2015
6060760,706059,4,QUEENS,68-12,YELLOWSTONE BOULEVARD,11375,2137,27,5N,6,08/19/2012,2,CLOSE,02/24/2016
6068951,21819,1,MANHATTAN,452,FT WASHINGTON AVENUE,10033,2176,100,NA,12,09/04/2012,2,CLOSE,09/07/2012
6072391,706059,4,QUEENS,68-12,YELLOWSTONE BOULEVARD,11375,2137,27,NA,6,09/09/2012,2,CLOSE,02/24/2016
6072179,706059,4,QUEENS,68-12,YELLOWSTONE BOULEVARD,11375,2137,27,NA,6,09/09/2012,2,CLOSE,02/24/2016
6072819,706059,4,QUEENS,68-12,YELLOWSTONE BOULEVARD,11375,2137,27,1J,6,09/10/2012,2,CLOSE,02/24/2016
6082830,804998,1,MANHATTAN,1740,LEXINGTON AVENUE,10029,1636,1,1H,11,09/26/2012,2,CLOSE,02/20/2015
6084442,706059,4,QUEENS,68-12,YELLOWSTONE BOULEVARD,11375,2137,27,NA,6,09/28/2012,2,CLOSE,02/24/2016
6090326,706059,4,QUEENS,68-12,YELLOWSTONE BOULEVARD,11375,2137,27,NA,6,10/08/2012,2,CLOSE,02/24/2016
6092241,706059,4,QUEENS,68-12,YELLOWSTONE BOULEVARD,11375,2137,27,NA,6,10/09/2012,2,CLOSE,02/24/2016
6097793,4108,1,MANHATTAN,2654,FREDERICK DOUGLASS BOULEVARD,10030,2027,1,18E,10,10/12/2012,2,CLOSE,02/20/2015
6100971,702538,4,QUEENS,41-01,VERNON BOULEVARD,11101,465,1,5E,1,10/15/2012,2,CLOSE,02/20/2015
6102313,811183,4,QUEENS,434,B 58 STREET,11692,16002,1,6E,14,10/16/2012,2,CLOSE,02/20/2015
6112515,352213,3,BROOKLYN,280,PARKSIDE AVENUE,11226,5055,24,D3W,9,10/27/2012,2,CLOSE,07/14/2015
6114329,809595,3,BROOKLYN,512,STONE AVENUE,11212,3544,1,4F,16,10/29/2012,2,CLOSE,02/20/2015
6114283,56839,2,BRONX,1236,CLAY AVENUE,10456,2427,6,1B,4,11/01/2012,2,CLOSE,02/20/2015
6120405,351270,3,BROOKLYN,65,PARK AVENUE,11205,2025,150,2A,3,11/03/2012,2,CLOSE,02/20/2015
6120485,358,1,MANHATTAN,1780,1 AVENUE,10128,1573,20,19E,8,11/03/2012,2,CLOSE,02/20/2015
6123763,6656,1,MANHATTAN,90,AVENUE D,10009,362,1,14A,3,11/05/2012,2,CLOSE,02/20/2015
6130839,21819,1,MANHATTAN,452,FT WASHINGTON AVENUE,10033,2176,100,29,12,11/06/2012,2,CLOSE,11/09/2012
6135364,21819,1,MANHATTAN,452,FT WASHINGTON AVENUE,10033,2176,100,55,12,11/07/2012,2,CLOSE,11/09/2012
6134185,864088,1,MANHATTAN,28,JACKSON STREET,10002,263,1,5,3,11/07/2012,2,CLOSE,02/20/2015
6131707,806411,2,BRONX,601,CROTONA PARK NO,10457,2944,1,2D,6,11/07/2012,2,CLOSE,02/20/2015
6139983,358,1,MANHATTAN,1780,1 AVENUE,10128,1573,20,19H,8,11/08/2012,2,CLOSE,02/20/2015
6139499,63984,2,BRONX,377,EAST 155 STREET,10455,2402,32,1D,1,11/08/2012,2,CLOSE,02/20/2015
6140609,706059,4,QUEENS,68-12,YELLOWSTONE BOULEVARD,11375,2137,27,BLDG,6,11/09/2012,2,CLOSE,02/24/2016
6146635,66168,2,BRONX,943,EAST 179 STREET,10460,3127,35,7,6,11/12/2012,2,CLOSE,11/14/2012
6146436,66168,2,BRONX,943,EAST 179 STREET,10460,3127,35,NA,6,11/12/2012,2,CLOSE,11/14/2012
6146998,358,1,MANHATTAN,1780,1 AVENUE,10128,1573,20,NA,8,11/12/2012,2,CLOSE,02/20/2015
6148990,88332,2,BRONX,875,IRVINE STREET,10474,2761,3,10B,2,11/13/2012,2,CLOSE,02/20/2015
6151422,807641,3,BROOKLYN,29,AVENUE W,11223,7137,1,1B,13,11/14/2012,2,CLOSE,02/20/2015
6169884,693426,4,QUEENS,132-35,SANFORD AVENUE,11355,5040,19,6R,7,11/25/2012,2,CLOSE,01/27/2015
6173541,5685,1,MANHATTAN,1835,AMSTERDAM AVENUE,10031,2065,61,1C,9,11/26/2012,1,OPEN,11/26/2012
6173539,706059,4,QUEENS,68-12,YELLOWSTONE BOULEVARD,11375,2137,27,NA,6,11/26/2012,2,CLOSE,02/24/2016
6172385,706059,4,QUEENS,68-12,YELLOWSTONE BOULEVARD,11375,2137,27,NA,6,11/26/2012,2,CLOSE,02/24/2016
6173368,706059,4,QUEENS,68-12,YELLOWSTONE BOULEVARD,11375,2137,27,6T,6,11/26/2012,2,CLOSE,02/24/2016
6173578,706059,4,QUEENS,68-12,YELLOWSTONE BOULEVARD,11375,2137,27,5T,6,11/26/2012,2,CLOSE,02/24/2016
6175938,706059,4,QUEENS,68-12,YELLOWSTONE BOULEVARD,11375,2137,27,NA,6,11/27/2012,2,CLOSE,02/24/2016
6175071,706059,4,QUEENS,68-12,YELLOWSTONE BOULEVARD,11375,2137,27,6T,6,11/27/2012,2,CLOSE,02/24/2016
6174507,706059,4,QUEENS,68-12,YELLOWSTONE BOULEVARD,11375,2137,27,NA,6,11/27/2012,2,CLOSE,02/24/2016
6176984,706059,4,QUEENS,68-12,YELLOWSTONE BOULEVARD,11375,2137,27,6T,6,11/28/2012,2,CLOSE,02/24/2016
6184941,806988,2,BRONX,3661,THIRD AVENUE,10456,2910,1,5E,3,12/02/2012,2,CLOSE,02/20/2015
6185428,811818,4,QUEENS,85-02,ROCKAWAY BEACH BOULEVARD,11693,16114,2,5,14,12/02/2012,2,CLOSE,02/20/2015
6192445,808047,3,BROOKLYN,68,CUMBERLAND WALK,11205,2041,1,NA,2,12/07/2012,2,CLOSE,02/20/2015
6196793,41995,1,MANHATTAN,533,WEST 145 STREET,10031,2077,10,5E,9,12/11/2012,2,CLOSE,03/19/2016
6202054,5685,1,MANHATTAN,1835,AMSTERDAM AVENUE,10031,2065,61,NA,9,12/13/2012,2,CLOSE,12/16/2012
6204450,1888,1,MANHATTAN,1785,3 AVENUE,10029,1649,1,2B,11,12/15/2012,2,CLOSE,02/20/2015
6206254,804634,1,MANHATTAN,435,EAST 105 STREET,10029,1699,1,9A,11,12/17/2012,2,CLOSE,02/20/2015
6213941,706059,4,QUEENS,68-12,YELLOWSTONE BOULEVARD,11375,2137,27,6T,6,12/21/2012,2,CLOSE,02/24/2016
6215466,706059,4,QUEENS,68-12,YELLOWSTONE BOULEVARD,11375,2137,27,6T,6,12/22/2012,2,CLOSE,02/24/2016
6216977,806411,2,BRONX,601,CROTONA PARK NO,10457,2944,1,6D,6,12/23/2012,2,CLOSE,02/20/2015
6217820,706059,4,QUEENS,68-12,YELLOWSTONE BOULEVARD,11375,2137,27,NA,6,12/24/2012,2,CLOSE,02/24/2016
6217825,706059,4,QUEENS,68-12,YELLOWSTONE BOULEVARD,11375,2137,27,NA,6,12/24/2012,2,CLOSE,02/24/2016
6228296,706059,4,QUEENS,68-12,YELLOWSTONE BOULEVARD,11375,2137,27,NA,6,12/29/2012,2,CLOSE,02/24/2016
6230977,5537,1,MANHATTAN,1320,AMSTERDAM AVENUE,10027,1980,1,16I,9,12/31/2012,2,CLOSE,02/20/2015
6235977,706059,4,QUEENS,68-12,YELLOWSTONE BOULEVARD,11375,2137,27,6T,6,01/02/2013,2,CLOSE,02/24/2016
6234198,812041,4,QUEENS,107-47,159 STREET,11433,10125,33,BLDG,12,01/02/2013,2,CLOSE,02/20/2015
6241434,396124,3,BROOKLYN,1113,WILLOUGHBY AVENUE,11237,3197,52,1L,4,01/04/2013,2,CLOSE,01/09/2013
6244577,806084,1,MANHATTAN,49,WEST 225 STREET,10463,2215,116,30J,8,01/07/2013,2,CLOSE,02/20/2015
6246884,21365,1,MANHATTAN,196,ELDRIDGE STREET,10002,416,1,NA,3,01/08/2013,2,CLOSE,02/20/2015
6254837,706059,4,QUEENS,68-12,YELLOWSTONE BOULEVARD,11375,2137,27,5S,6,01/15/2013,2,CLOSE,02/24/2016
6257540,706059,4,QUEENS,68-12,YELLOWSTONE BOULEVARD,11375,2137,27,6T,6,01/16/2013,2,CLOSE,02/24/2016
6262031,706059,4,QUEENS,68-12,YELLOWSTONE BOULEVARD,11375,2137,27,NA,6,01/19/2013,2,CLOSE,02/24/2016
6262005,706059,4,QUEENS,68-12,YELLOWSTONE BOULEVARD,11375,2137,27,6T,6,01/19/2013,2,CLOSE,02/24/2016
6262087,706059,4,QUEENS,68-12,YELLOWSTONE BOULEVARD,11375,2137,27,4N,6,01/19/2013,2,CLOSE,02/24/2016
6263827,706059,4,QUEENS,68-12,YELLOWSTONE BOULEVARD,11375,2137,27,6T,6,01/20/2013,2,CLOSE,02/24/2016
6262877,5840,1,MANHATTAN,2340,AMSTERDAM AVENUE,10033,2132,47,1C,12,01/20/2013,2,CLOSE,02/20/2015
6264612,811659,4,QUEENS,34-41,LINDEN PLACE,11354,4951,8,7D,7,01/21/2013,2,CLOSE,02/20/2015
6275586,41400,1,MANHATTAN,120,WEST 140 STREET,10030,2008,13,BLDG,10,01/24/2013,2,CLOSE,02/20/2015
6283399,125070,2,BRONX,472,WILLIS AVENUE,10455,2291,1,5J,1,01/25/2013,2,CLOSE,02/20/2015
6289947,806084,1,MANHATTAN,49,WEST 225 STREET,10463,2215,116,30B,8,01/28/2013,2,CLOSE,02/20/2015
6294591,706059,4,QUEENS,68-12,YELLOWSTONE BOULEVARD,11375,2137,27,NA,6,01/30/2013,2,CLOSE,02/24/2016
6294505,706059,4,QUEENS,68-12,YELLOWSTONE BOULEVARD,11375,2137,27,5F,6,01/30/2013,2,CLOSE,02/24/2016
6294171,96838,2,BRONX,1493,MONTGOMERY AVENUE,10453,2877,233,BLDG,5,01/30/2013,2,CLOSE,02/20/2015
6298545,402146,4,QUEENS,34-05,12 STREET,11106,523,2,3G,1,02/01/2013,2,CLOSE,02/20/2015
6299758,43314,1,MANHATTAN,504,WEST 177 STREET,10033,2132,106,4C,12,02/01/2013,2,CLOSE,02/20/2015
6300442,706059,4,QUEENS,68-12,YELLOWSTONE BOULEVARD,11375,2137,27,NA,6,02/02/2013,2,CLOSE,02/24/2016
6305430,706059,4,QUEENS,68-12,YELLOWSTONE BOULEVARD,11375,2137,27,NA,6,02/04/2013,2,CLOSE,02/24/2016
6311387,706059,4,QUEENS,68-12,YELLOWSTONE BOULEVARD,11375,2137,27,6B,6,02/07/2013,2,CLOSE,02/24/2016
6311545,706059,4,QUEENS,68-12,YELLOWSTONE BOULEVARD,11375,2137,27,6T,6,02/07/2013,2,CLOSE,02/24/2016
6311741,706059,4,QUEENS,68-12,YELLOWSTONE BOULEVARD,11375,2137,27,NA,6,02/07/2013,2,CLOSE,02/24/2016
6312704,227189,3,BROOKLYN,38,COVERT STREET,11207,3420,26,BLDG,4,02/08/2013,2,CLOSE,02/14/2018
6313393,706059,4,QUEENS,68-12,YELLOWSTONE BOULEVARD,11375,2137,27,6N,6,02/08/2013,2,CLOSE,02/24/2016
6313806,706059,4,QUEENS,68-12,YELLOWSTONE BOULEVARD,11375,2137,27,5T,6,02/08/2013,2,CLOSE,02/24/2016
6313105,706059,4,QUEENS,68-12,YELLOWSTONE BOULEVARD,11375,2137,27,5N,6,02/08/2013,2,CLOSE,02/24/2016
6313227,706059,4,QUEENS,68-12,YELLOWSTONE BOULEVARD,11375,2137,27,6T,6,02/08/2013,2,CLOSE,02/24/2016
6313517,706059,4,QUEENS,68-12,YELLOWSTONE BOULEVARD,11375,2137,27,6B,6,02/08/2013,2,CLOSE,02/24/2016
6316242,811245,4,QUEENS,441,BEACH 51 STREET,11691,16001,2,5A,14,02/10/2013,2,CLOSE,02/20/2015
6323618,806991,2,BRONX,710,TINTON AVENUE,10455,2665,1,16F,1,02/15/2013,2,CLOSE,02/20/2015
6329735,392483,3,BROOKLYN,109,WEST 9 STREET,11231,536,42,BLDG,6,02/19/2013,2,CLOSE,07/26/2014
6339885,394748,3,BROOKLYN,3021,WEST 25 STREET,11224,7070,1,4F,13,02/25/2013,2,CLOSE,02/20/2015
6356133,112539,2,BRONX,1723,TAYLOR AVENUE,10460,4020,22,1B,11,03/08/2013,2,CLOSE,03/20/2013
6361553,706059,4,QUEENS,68-12,YELLOWSTONE BOULEVARD,11375,2137,27,6,6,03/13/2013,2,CLOSE,02/24/2016
6362708,806641,2,BRONX,1120,EAST 229 STREET,10466,4905,1,2A,12,03/14/2013,2,CLOSE,02/20/2015
6372622,66168,2,BRONX,943,EAST 179 STREET,10460,3127,35,NA,6,03/21/2013,2,CLOSE,03/23/2013
6373420,66168,2,BRONX,943,EAST 179 STREET,10460,3127,35,NA,6,03/21/2013,2,CLOSE,03/23/2013
6373414,66168,2,BRONX,943,EAST 179 STREET,10460,3127,35,6,6,03/21/2013,2,CLOSE,03/23/2013
6373718,66168,2,BRONX,943,EAST 179 STREET,10460,3127,35,8,6,03/21/2013,2,CLOSE,03/23/2013
6373922,66168,2,BRONX,943,EAST 179 STREET,10460,3127,35,5,6,03/22/2013,2,CLOSE,03/23/2013
6382701,808185,3,BROOKLYN,671,EAST 105 STREET,11236,8174,1,6E,18,03/29/2013,2,CLOSE,02/20/2015
6391354,804005,1,MANHATTAN,1430,AMSTERDAM AVENUE,10027,1984,1,NA,9,04/07/2013,2,CLOSE,02/20/2015
6392072,807075,2,BRONX,1250,WEBSTER AVENUE,10456,2395,1,8D,3,04/08/2013,2,CLOSE,02/20/2015
6399144,706059,4,QUEENS,68-12,YELLOWSTONE BOULEVARD,11375,2137,27,4N,6,04/12/2013,2,CLOSE,02/24/2016
6398941,706059,4,QUEENS,68-12,YELLOWSTONE BOULEVARD,11375,2137,27,6B,6,04/12/2013,2,CLOSE,02/24/2016
6401425,41995,1,MANHATTAN,533,WEST 145 STREET,10031,2077,10,4E,9,04/15/2013,2,CLOSE,03/19/2016
6401718,41995,1,MANHATTAN,533,WEST 145 STREET,10031,2077,10,1R,9,04/15/2013,2,CLOSE,03/19/2016
6401817,41995,1,MANHATTAN,533,WEST 145 STREET,10031,2077,10,5E,9,04/15/2013,2,CLOSE,03/19/2016
6402474,334814,3,BROOKLYN,655,MAC DONOUGH STREET,11233,1497,72,2R,3,04/16/2013,2,CLOSE,08/29/2014
6406372,706059,4,QUEENS,68-12,YELLOWSTONE BOULEVARD,11375,2137,27,6B,6,04/21/2013,2,CLOSE,02/24/2016
6406435,9067,1,MANHATTAN,10,CATHERINE SLIP,10038,111,100,1C,3,04/21/2013,2,CLOSE,02/20/2015
6407330,66168,2,BRONX,943,EAST 179 STREET,10460,3127,35,NA,6,04/22/2013,2,CLOSE,04/25/2013
6407130,706059,4,QUEENS,68-12,YELLOWSTONE BOULEVARD,11375,2137,27,NA,6,04/22/2013,2,CLOSE,02/24/2016
6408152,706059,4,QUEENS,68-12,YELLOWSTONE BOULEVARD,11375,2137,27,NA,6,04/22/2013,2,CLOSE,02/24/2016
6415605,706059,4,QUEENS,68-12,YELLOWSTONE BOULEVARD,11375,2137,27,NA,6,04/30/2013,2,CLOSE,02/24/2016
6416411,706059,4,QUEENS,68-12,YELLOWSTONE BOULEVARD,11375,2137,27,1X,6,05/01/2013,2,CLOSE,02/24/2016
6419297,806988,2,BRONX,3661,THIRD AVENUE,10456,2910,1,3N,3,05/04/2013,2,CLOSE,02/20/2015
6422862,706059,4,QUEENS,68-12,YELLOWSTONE BOULEVARD,11375,2137,27,3N,6,05/08/2013,2,CLOSE,02/24/2016
6426546,706059,4,QUEENS,68-12,YELLOWSTONE BOULEVARD,11375,2137,27,1X,6,05/13/2013,2,CLOSE,02/24/2016
6427777,706059,4,QUEENS,68-12,YELLOWSTONE BOULEVARD,11375,2137,27,NA,6,05/14/2013,2,CLOSE,02/24/2016
6440950,706059,4,QUEENS,68-12,YELLOWSTONE BOULEVARD,11375,2137,27,NA,6,05/31/2013,2,CLOSE,02/24/2016
6448037,807053,2,BRONX,1481,WASHINGTON AVENUE,10456,2902,36,3B,3,06/11/2013,2,CLOSE,02/20/2015
6483726,1888,1,MANHATTAN,1785,3 AVENUE,10029,1649,1,5A,11,07/29/2013,2,CLOSE,02/20/2015
6483820,659687,4,QUEENS,135-10,GRAND CENTRAL PARKWAY,11435,6636,1,221,8,07/29/2013,2,CLOSE,07/25/2014
6493154,59235,2,BRONX,2538,CRESTON AVENUE,10468,3167,32,3N,7,08/09/2013,2,CLOSE,06/11/2015
6498694,361046,3,BROOKLYN,421,REMSEN AVENUE,11212,4665,67,3A,17,08/19/2013,2,CLOSE,01/06/2015
6501363,59235,2,BRONX,2538,CRESTON AVENUE,10468,3167,32,3N,7,08/22/2013,2,CLOSE,06/11/2015
6511117,361046,3,BROOKLYN,421,REMSEN AVENUE,11212,4665,67,3A,17,09/06/2013,2,CLOSE,01/06/2015
6513864,217152,3,BROOKLYN,483,CARLTON AVENUE,11238,2007,1,2K,2,09/11/2013,2,CLOSE,02/20/2015
6517913,292826,3,BROOKLYN,599,FLATBUSH AVENUE,11225,5037,10,4A,9,09/17/2013,2,CLOSE,12/02/2014
6517917,292826,3,BROOKLYN,599,FLATBUSH AVENUE,11225,5037,10,3B,9,09/17/2013,2,CLOSE,11/20/2014
6519532,112539,2,BRONX,1723,TAYLOR AVENUE,10460,4020,22,NA,11,09/19/2013,2,CLOSE,09/21/2013
6520643,292826,3,BROOKLYN,599,FLATBUSH AVENUE,11225,5037,10,4B,9,09/20/2013,2,CLOSE,08/22/2015
6520662,292826,3,BROOKLYN,599,FLATBUSH AVENUE,11225,5037,10,4B,9,09/20/2013,2,CLOSE,12/02/2014
6520600,292826,3,BROOKLYN,599,FLATBUSH AVENUE,11225,5037,10,4A,9,09/20/2013,2,CLOSE,12/02/2014
6520633,292826,3,BROOKLYN,599,FLATBUSH AVENUE,11225,5037,10,4C,9,09/20/2013,2,CLOSE,11/20/2014
6524048,87465,2,BRONX,3207,HULL AVENUE,10467,3346,31,BLDG,7,09/26/2013,2,CLOSE,05/21/2016
6524790,250382,3,BROOKLYN,340,EAST 22 STREET,11226,5165,34,5D,14,09/26/2013,2,CLOSE,07/10/2014
6524881,575780,4,QUEENS,119-18,171 STREET,11434,12370,31,NA,12,09/27/2013,2,CLOSE,07/29/2014
6526869,900813,4,QUEENS,175-13,89 AVENUE,11432,9833,65,2,12,09/30/2013,2,CLOSE,08/01/2014
6527809,158255,3,BROOKLYN,835,55 STREET,11220,5672,67,1FL,12,10/01/2013,2,CLOSE,08/07/2014
6527601,3981,1,MANHATTAN,2192,FREDERICK DOUGLASS BOULEVARD,10026,1924,2,PHB,10,10/01/2013,2,CLOSE,08/02/2014
6527957,427974,4,QUEENS,43-09,40 STREET,11104,189,19,BLDG,2,10/02/2013,2,CLOSE,10/24/2015
6528472,39431,1,MANHATTAN,31,WEST 124 STREET,10027,1722,22,2D,10,10/02/2013,2,CLOSE,07/18/2014
6529341,631538,4,QUEENS,250,BEACH 15 STREET,11691,15625,1,E501,14,10/03/2013,2,CLOSE,07/08/2014
6530011,142840,3,BROOKLYN,4319,18 AVENUE,11218,5415,17,D6,14,10/04/2013,2,CLOSE,08/20/2014
6530572,445356,4,QUEENS,97-20,57 AVENUE,11368,1918,60,18G,4,10/05/2013,2,CLOSE,07/08/2014
6531586,910037,4,QUEENS,40-28,COLLEGE POINT BOULEVARD,11354,5066,"7,503",PH212,7,10/07/2013,2,CLOSE,01/26/2015
6532784,810311,4,QUEENS,141-09,28 AVENUE,11354,4285,10,1D,7,10/09/2013,2,CLOSE,10/17/2014
6533164,661275,4,QUEENS,1930,GROVE STREET,11385,3392,35,3R,5,10/09/2013,2,CLOSE,07/25/2014
6533233,566348,4,QUEENS,111-10,160 STREET,11433,12178,45,2FL,12,10/09/2013,2,CLOSE,07/14/2014
6534064,911365,4,QUEENS,114-70,DALIAN COURT,11356,4019,161,2,7,10/10/2013,2,CLOSE,02/06/2015
6534069,561284,4,QUEENS,72-60,150 STREET,11367,6681,1,2B,8,10/10/2013,2,CLOSE,07/29/2014
6533921,628606,4,QUEENS,140-70,ASH AVENUE,11355,5185,37,302,7,10/10/2013,2,CLOSE,07/19/2014
6533865,310922,3,BROOKLYN,532A,HENRY STREET,11231,343,31,4F,6,10/10/2013,2,CLOSE,07/21/2014
6534675,361046,3,BROOKLYN,421,REMSEN AVENUE,11212,4665,67,3A,17,10/11/2013,2,CLOSE,01/06/2015
6534255,485085,4,QUEENS,135-16,82 AVENUE,11435,9668,5,4J,8,10/11/2013,2,CLOSE,07/25/2014
6534938,657953,4,QUEENS,2026,GATES AVENUE,11385,3486,1,2L,5,10/11/2013,2,CLOSE,07/25/2014
6535760,314353,3,BROOKLYN,167,HOYT STREET,11217,386,1,3,2,10/14/2013,2,CLOSE,08/27/2014
6535865,445348,4,QUEENS,96-02,57 AVENUE,11368,1918,50,8G,4,10/14/2013,2,CLOSE,07/10/2014
6536984,414685,4,QUEENS,35-16,28 STREET,11106,339,52,1FL,1,10/15/2013,2,CLOSE,10/15/2014
6536966,326737,3,BROOKLYN,858,LINCOLN PLACE,11216,1262,33,3,8,10/15/2013,2,CLOSE,08/12/2014
6537053,705398,4,QUEENS,195-14,WOODHULL AVENUE,11423,10822,8,1FL,12,10/15/2013,2,CLOSE,07/19/2014
6535998,700409,4,QUEENS,159-05,UNION TURNPIKE,11366,6831,22,304,8,10/15/2013,2,CLOSE,07/18/2014
6536729,328130,3,BROOKLYN,324,LIVINGSTON STREET,11217,166,33,4R,2,10/15/2013,2,CLOSE,07/13/2014
6539720,243886,3,BROOKLYN,58,ARGYLE ROAD,11218,5073,29,1B,14,10/16/2013,2,CLOSE,09/04/2014
6537707,704988,4,QUEENS,64-02,WOODBINE STREET,11385,3618,7,BLDG,5,10/16/2013,2,CLOSE,07/14/2014
6540365,309655,3,BROOKLYN,936,HEGEMAN AVENUE,11208,4339,6,1FL,5,10/17/2013,2,CLOSE,09/04/2014
6540488,37428,1,MANHATTAN,15,WEST 103 STREET,10025,1839,22,3C,7,10/17/2013,2,CLOSE,08/02/2014
6540568,126567,3,BROOKLYN,11,1 PLACE,11231,355,44,1FL,6,10/17/2013,2,CLOSE,07/30/2014
6540297,37571,1,MANHATTAN,53,WEST 105 STREET,10025,1841,11,7,7,10/17/2013,2,CLOSE,07/13/2014
6541047,631323,4,QUEENS,7-07,BEACH 9 STREET,11691,15572,1,2R,14,10/18/2013,2,CLOSE,07/16/2014
6541205,561284,4,QUEENS,72-60,150 STREET,11367,6681,1,3H,8,10/18/2013,2,CLOSE,07/18/2014
6541707,547382,4,QUEENS,135-19,135 AVENUE,11420,11795,73,1FL,10,10/19/2013,2,CLOSE,10/07/2014
6541617,518385,4,QUEENS,103-31,107 STREET,11417,9512,48,2NDFL,10,10/19/2013,2,CLOSE,07/01/2014
6541685,681986,4,QUEENS,64-02,MYRTLE AVENUE,11385,3593,16,2FL,5,10/19/2013,2,CLOSE,07/25/2014
6542397,706059,4,QUEENS,68-12,YELLOWSTONE BOULEVARD,11375,2137,27,2A,6,10/20/2013,2,CLOSE,02/24/2016
6542533,7048,1,MANHATTAN,155,BLEECKER STREET,10012,539,35,3,2,10/21/2013,2,CLOSE,09/18/2014
6543273,384680,3,BROOKLYN,939,UTICA AVENUE,11203,4722,1,B3,17,10/21/2013,2,CLOSE,09/04/2014
6543263,648751,4,QUEENS,84-53,DANA COURT,11379,2999,28,3J,5,10/21/2013,2,CLOSE,07/29/2014
6543582,126567,3,BROOKLYN,11,1 PLACE,11231,355,44,1FL,6,10/21/2013,2,CLOSE,07/30/2014
6543189,421613,4,QUEENS,25-15,34 STREET,11103,632,27,4,1,10/21/2013,2,CLOSE,07/25/2014
6544521,426712,4,QUEENS,104-56,39 AVENUE,11368,1776,121,3A,3,10/22/2013,2,CLOSE,01/25/2015
6544532,691943,4,QUEENS,142-64,ROCKAWAY BOULEVARD,11436,12059,33,FLR2,12,10/22/2013,2,CLOSE,10/07/2014
6544478,454260,4,QUEENS,89-11,63 DRIVE,11374,3110,31,405,6,10/22/2013,2,CLOSE,08/01/2014
6544727,37428,1,MANHATTAN,15,WEST 103 STREET,10025,1839,22,3C,7,10/22/2013,2,CLOSE,08/02/2014
6544732,669603,4,QUEENS,34-06,JORDAN STREET,11358,6077,7,8C,11,10/22/2013,2,CLOSE,08/14/2014
6544583,364881,3,BROOKLYN,521,RUTLAND ROAD,11203,4803,54,3FL,9,10/22/2013,2,CLOSE,08/22/2014
6544970,462803,4,QUEENS,60-05,69 AVENUE,11385,3515,50,1FLR,5,10/22/2013,2,CLOSE,07/25/2014
6544460,440480,4,QUEENS,87-10,51 AVENUE,11373,1837,12,6J,4,10/22/2013,2,CLOSE,07/18/2014
6545066,706059,4,QUEENS,68-12,YELLOWSTONE BOULEVARD,11375,2137,27,NA,6,10/23/2013,2,CLOSE,02/24/2016
6545043,706059,4,QUEENS,68-12,YELLOWSTONE BOULEVARD,11375,2137,27,NA,6,10/23/2013,2,CLOSE,02/24/2016
6546267,228915,3,BROOKLYN,410,CUMBERLAND STREET,11238,2005,184,1,2,10/23/2013,2,CLOSE,03/03/2015
6546368,477763,4,QUEENS,87-21,77 STREET,11421,8908,55,2FL,9,10/23/2013,2,CLOSE,09/06/2014
6545804,421895,4,QUEENS,36-63,34 STREET,11106,634,7,14,1,10/23/2013,2,CLOSE,07/12/2014
6546051,933158,4,QUEENS,121-32,FARMERS BOULEVARD,11413,12458,5,1A,12,10/23/2013,2,CLOSE,07/17/2014
6547971,198332,3,BROOKLYN,7,BALFOUR PLACE,11225,1324,35,B2,9,10/23/2013,2,CLOSE,07/11/2014
6547079,37574,1,MANHATTAN,56,WEST 105 STREET,10025,1840,56,4B,7,10/23/2013,2,CLOSE,06/29/2014
6549921,158853,3,BROOKLYN,560,56 STREET,11220,840,31,3L,7,10/24/2013,2,CLOSE,10/29/2013
6548868,706059,4,QUEENS,68-12,YELLOWSTONE BOULEVARD,11375,2137,27,NA,6,10/24/2013,2,CLOSE,02/24/2016
6551162,18905,1,MANHATTAN,55,EAST 102 STREET,10029,1608,23,8A,11,10/24/2013,2,CLOSE,02/20/2015
6549203,461953,4,QUEENS,32-33,68 STREET,11377,1164,79,FLR2,3,10/24/2013,2,CLOSE,07/01/2014
6549609,433049,4,QUEENS,45-26,44 STREET,11104,168,41,6A,2,10/24/2013,2,CLOSE,07/09/2014
6551415,706059,4,QUEENS,68-12,YELLOWSTONE BOULEVARD,11375,2137,27,NA,6,10/25/2013,2,CLOSE,02/24/2016
6552233,665680,4,QUEENS,97-24,HORACE HARDING EXPRESSWAY,11374,1918,110,16C,6,10/25/2013,2,CLOSE,02/06/2015
6551391,330762,3,BROOKLYN,190,MADISON STREET,11216,1822,42,2,3,10/25/2013,2,CLOSE,09/04/2014
6552530,377736,3,BROOKLYN,45,STOCKHOLM STREET,11221,3243,78,3B,4,10/25/2013,2,CLOSE,07/22/2014
6552613,44058,1,MANHATTAN,585,WEST END AVENUE,10024,1250,30,6A,7,10/25/2013,2,CLOSE,07/04/2014
6555497,706059,4,QUEENS,68-12,YELLOWSTONE BOULEVARD,11375,2137,27,1X,6,10/26/2013,2,CLOSE,02/24/2016
6554308,706059,4,QUEENS,68-12,YELLOWSTONE BOULEVARD,11375,2137,27,NA,6,10/26/2013,2,CLOSE,02/24/2016
6555719,330762,3,BROOKLYN,190,MADISON STREET,11216,1822,42,2,3,10/26/2013,2,CLOSE,09/04/2014
6554959,246242,3,BROOKLYN,217,EAST 16 STREET,11226,5120,51,H,14,10/26/2013,2,CLOSE,07/18/2014
6557743,868935,3,BROOKLYN,1560,FULTON STREET,11213,1699,"7,501",902,3,10/28/2013,2,CLOSE,08/06/2014
6557501,810848,4,QUEENS,170-20,130 AVENUE,11434,12495,2,GA,12,10/28/2013,2,CLOSE,07/29/2014
6558069,810381,4,QUEENS,21-78,35 STREET,11105,830,"7,501",4H,1,10/28/2013,2,CLOSE,07/14/2014
6557673,424698,4,QUEENS,98-02,37 AVENUE,11368,1761,1,3FL,3,10/28/2013,2,CLOSE,07/25/2014
6559208,706059,4,QUEENS,68-12,YELLOWSTONE BOULEVARD,11375,2137,27,NA,6,10/29/2013,2,CLOSE,02/24/2016
6559113,706059,4,QUEENS,68-12,YELLOWSTONE BOULEVARD,11375,2137,27,1X,6,10/29/2013,2,CLOSE,02/24/2016
6559216,808124,3,BROOKLYN,430,DUMONT AVENUE,11212,3794,1,2B,16,10/29/2013,2,CLOSE,02/20/2015
6559842,330762,3,BROOKLYN,190,MADISON STREET,11216,1822,42,2,3,10/29/2013,2,CLOSE,09/04/2014
6560463,228576,3,BROOKLYN,668,CROWN STREET,11213,1418,20,BSMT,9,10/29/2013,2,CLOSE,08/22/2014
6560391,930320,4,QUEENS,144-21,CHARTER ROAD,11435,6715,2,5D,8,10/29/2013,2,CLOSE,07/08/2014
6559372,25867,1,MANHATTAN,60,MULBERRY STREET,10013,164,16,12RH,3,10/29/2013,2,CLOSE,07/19/2014
6559036,674100,4,QUEENS,116-50,LINCOLN STREET,11420,11687,35,PH,10,10/29/2013,2,CLOSE,07/14/2014
6559518,451939,4,QUEENS,40-53,61 STREET,11377,1336,12,4B,2,10/29/2013,2,CLOSE,07/17/2014
6561070,706059,4,QUEENS,68-12,YELLOWSTONE BOULEVARD,11375,2137,27,1X,6,10/30/2013,2,CLOSE,02/24/2016
6561032,361046,3,BROOKLYN,421,REMSEN AVENUE,11212,4665,67,3A,17,10/30/2013,2,CLOSE,01/06/2015
6560903,928422,3,BROOKLYN,129,CHESTER STREET,11212,3521,123,3,16,10/30/2013,2,CLOSE,09/04/2014
6562372,330762,3,BROOKLYN,190,MADISON STREET,11216,1822,42,2,3,10/30/2013,2,CLOSE,09/04/2014
6561121,187416,3,BROOKLYN,801,AVENUE C,11218,5360,48,4F,12,10/30/2013,2,CLOSE,09/04/2014
6561510,302677,3,BROOKLYN,47,GRAND STREET,11249,2378,37,3,1,10/30/2013,2,CLOSE,07/08/2014
6561542,671267,4,QUEENS,42-45,KISSENA BOULEVARD,11355,5180,15,4D,7,10/30/2013,2,CLOSE,07/19/2014
6563379,706059,4,QUEENS,68-12,YELLOWSTONE BOULEVARD,11375,2137,27,1N,6,10/31/2013,2,CLOSE,02/24/2016
6562872,505210,4,QUEENS,78-16,95 AVENUE,11416,9007,7,2,9,10/31/2013,2,CLOSE,10/07/2014
6563642,330762,3,BROOKLYN,190,MADISON STREET,11216,1822,42,2,3,10/31/2013,2,CLOSE,09/04/2014
6563302,220201,3,BROOKLYN,2829,CHURCH AVENUE,11226,5091,60,2F,17,10/31/2013,2,CLOSE,09/04/2014
6563843,326066,3,BROOKLYN,675,LINCOLN AVENUE,11208,4271,5,9L,5,11/01/2013,2,CLOSE,05/14/2016
6563777,521062,4,QUEENS,109-19,109 STREET,11420,11476,27,2B,10,11/01/2013,2,CLOSE,02/24/2015
6563848,205176,3,BROOKLYN,117,BEADEL STREET,11222,2836,38,2NDF,1,11/01/2013,2,CLOSE,08/19/2014
6564175,409457,4,QUEENS,29-06,24 AVENUE,11102,840,46,NA,1,11/01/2013,2,CLOSE,07/14/2014
6564401,810919,4,QUEENS,75-06,153 STREET,11367,6704,1,1A,8,11/01/2013,2,CLOSE,07/26/2014
6564229,514064,4,QUEENS,115-16,103 AVENUE,11419,9520,8,BSMT,10,11/01/2013,2,CLOSE,07/25/2014
6564035,232919,3,BROOKLYN,247,DEVOE STREET,11211,2916,55,1L,1,11/01/2013,2,CLOSE,07/31/2014
6565064,706059,4,QUEENS,68-12,YELLOWSTONE BOULEVARD,11375,2137,27,1N,6,11/02/2013,2,CLOSE,02/24/2016
6565012,706059,4,QUEENS,68-12,YELLOWSTONE BOULEVARD,11375,2137,27,1X,6,11/02/2013,2,CLOSE,02/24/2016
6565065,883076,3,BROOKLYN,79,TROUTMAN STREET,11206,3171,46,2,4,11/02/2013,2,CLOSE,07/29/2014
6565529,287498,3,BROOKLYN,1051,EASTERN PARKWAY,11213,1390,77,4A,8,11/03/2013,2,CLOSE,07/07/2014
6567916,24662,1,MANHATTAN,1445,MADISON AVENUE,10029,1605,24,6H,11,11/04/2013,2,CLOSE,02/20/2015
6566830,238200,3,BROOKLYN,564,EAST 4 STREET,11218,5372,44,2G,12,11/04/2013,2,CLOSE,09/04/2014
6568291,37482,1,MANHATTAN,218,WEST 104 STREET,10025,1875,41,NA,7,11/04/2013,2,CLOSE,07/03/2014
6567702,10979,1,MANHATTAN,519,EAST 6 STREET,10009,402,56,3,3,11/04/2013,2,CLOSE,07/04/2014
6567745,36892,1,MANHATTAN,252,WEST 91 STREET,10024,1238,54,14,7,11/04/2013,2,CLOSE,07/11/2014
6569804,706059,4,QUEENS,68-12,YELLOWSTONE BOULEVARD,11375,2137,27,NA,6,11/05/2013,2,CLOSE,02/24/2016
6569527,655666,4,QUEENS,86-05,FOREST PARKWAY,11421,8854,67,D6,9,11/05/2013,2,CLOSE,02/24/2015
6569941,949517,4,QUEENS,123-02,193 STREET,11413,12726,71,2FL,12,11/05/2013,2,CLOSE,07/14/2014
6569404,930660,4,QUEENS,20-35,SEAGIRT BOULEVARD,11691,15810,71,BSMT,14,11/05/2013,2,CLOSE,07/16/2014
6569593,512872,4,QUEENS,86-05,102 AVENUE,11416,9087,40,PVT,9,11/05/2013,2,CLOSE,07/25/2014
6571135,344238,3,BROOKLYN,1203,NEWKIRK AVENUE,11230,5198,39,2,14,11/06/2013,2,CLOSE,08/27/2014
6571551,805806,1,MANHATTAN,70,WEST 95 STREET,10025,1208,1,3H,7,11/06/2013,2,CLOSE,07/01/2014
6570859,6515,1,MANHATTAN,112,AVENUE C,10009,377,2,12,3,11/06/2013,2,CLOSE,07/08/2014
6572885,170532,3,BROOKLYN,1262,74 STREET,11228,6210,32,1FL,10,11/07/2013,2,CLOSE,06/04/2015
6573046,949821,4,QUEENS,177-14,129 AVENUE,11434,12538,156,1FLR,12,11/07/2013,2,CLOSE,04/03/2015
6572716,521062,4,QUEENS,109-19,109 STREET,11420,11476,27,2B,10,11/07/2013,2,CLOSE,02/24/2015
6572366,351105,3,BROOKLYN,364,PALMETTO STREET,11237,3353,8,1B,4,11/07/2013,2,CLOSE,09/05/2014
6572225,686953,4,QUEENS,86-20,PARK LANE SOUTH,11421,8865,9,3A,9,11/07/2013,2,CLOSE,08/19/2014
6572119,571051,4,QUEENS,110-40,166 STREET,11433,10193,25,1,12,11/07/2013,2,CLOSE,07/17/2014
6572889,482962,4,QUEENS,31-18,80 STREET,11370,1150,16,3FLR,3,11/07/2013,2,CLOSE,07/22/2014
6574046,706059,4,QUEENS,68-12,YELLOWSTONE BOULEVARD,11375,2137,27,NA,6,11/08/2013,2,CLOSE,02/24/2016
6575200,258151,3,BROOKLYN,1071,EAST 34 STREET,11210,7580,16,2FL,18,11/08/2013,2,CLOSE,07/06/2015
6576101,24662,1,MANHATTAN,1445,MADISON AVENUE,10029,1605,24,8C,11,11/08/2013,2,CLOSE,02/20/2015
6575782,930139,4,QUEENS,171-03,107 AVENUE,11433,10240,60,2,12,11/08/2013,2,CLOSE,07/17/2014
6574606,445356,4,QUEENS,97-20,57 AVENUE,11368,1918,60,5E,4,11/08/2013,2,CLOSE,07/08/2014
6575000,811229,4,QUEENS,261,BEACH 13 STREET,11691,15624,1,H104,14,11/08/2013,2,CLOSE,07/22/2014
6576877,416166,4,QUEENS,45-19,30 AVENUE,11103,719,49,1F,1,11/09/2013,2,CLOSE,07/28/2014
6578987,3621,1,MANHATTAN,2504,ADAM C POWELL BOULEVARD,10039,2031,31,19,10,11/11/2013,2,CLOSE,11/07/2014
6579231,109998,2,BRONX,1208,SOUTHERN BOULEVARD,10459,2979,2,5C,3,11/11/2013,2,CLOSE,10/21/2014
6579118,554209,4,QUEENS,87-22,144 STREET,11435,9701,16,BASE,8,11/11/2013,2,CLOSE,07/25/2014
6581878,411819,4,QUEENS,41-26,CRESCENT STREET,11101,414,39,12,1,11/12/2013,2,CLOSE,01/27/2015
6581368,373678,3,BROOKLYN,1325,ST JOHNS PLACE,11213,1377,42,2,8,11/12/2013,2,CLOSE,09/05/2014
6580445,602178,4,QUEENS,94-34,213 STREET,11428,10602,24,2FL,13,11/12/2013,2,CLOSE,08/08/2014
6580749,461953,4,QUEENS,32-33,68 STREET,11377,1164,79,2FL,3,11/12/2013,2,CLOSE,07/01/2014
6580815,19874,1,MANHATTAN,334,EAST 117 STREET,10035,1688,36,4,11,11/12/2013,2,CLOSE,07/22/2014
6581628,430175,4,QUEENS,20-44,42 STREET,11105,798,50,1R,1,11/12/2013,2,CLOSE,07/14/2014
6582584,389749,3,BROOKLYN,101,WELDON STREET,11208,4163,33,4C,5,11/12/2013,2,CLOSE,07/18/2014
6588440,133648,3,BROOKLYN,77,7 AVENUE,11217,1063,7,3A,6,11/13/2013,2,CLOSE,09/04/2014
6586182,206374,3,BROOKLYN,3620,BEDFORD AVENUE,11210,6771,6,F4,14,11/13/2013,2,CLOSE,09/04/2014
6585972,394533,3,BROOKLYN,2815,WEST 20 STREET,11224,7019,83,1R,13,11/13/2013,2,CLOSE,08/27/2014
6585681,35556,1,MANHATTAN,170,WEST 77 STREET,10024,1148,160,3A,7,11/13/2013,2,CLOSE,07/04/2014
6583584,284451,3,BROOKLYN,385,EAST 96 STREET,11212,4671,50,1R,17,11/13/2013,2,CLOSE,07/18/2014
6585456,231020,3,BROOKLYN,1745,DEAN STREET,11233,1343,86,1,8,11/13/2013,2,CLOSE,07/07/2014
6589702,597820,4,QUEENS,90-63,208 STREET,11428,10558,3,1FL,13,11/14/2013,2,CLOSE,02/06/2015
6590242,18875,1,MANHATTAN,119,EAST 102 STREET,10029,1630,10,3C,11,11/14/2013,2,CLOSE,10/11/2014
6589807,347734,3,BROOKLYN,446,OCEAN AVENUE,11226,5080,13,1J,14,11/14/2013,2,CLOSE,09/04/2014
6590325,633438,4,QUEENS,546,BEACH 69 STREET,11692,16035,36,2,14,11/14/2013,2,CLOSE,08/01/2014
6589683,305767,3,BROOKLYN,277,HALSEY STREET,11216,1840,64,3R,3,11/14/2013,2,CLOSE,08/20/2014
6589567,443718,4,QUEENS,59-16,55 STREET,11378,2629,19,2L,5,11/14/2013,2,CLOSE,07/26/2014
6589968,641574,4,QUEENS,66-01,BURNS STREET,11374,3155,1,1J,6,11/14/2013,2,CLOSE,07/25/2014
6591138,804860,1,MANHATTAN,99,FT WASHINGTON AVENUE,10032,2136,235,3Y,12,11/15/2013,2,CLOSE,02/20/2015
6591626,352227,3,BROOKLYN,354,PARKSIDE AVENUE,11226,5055,138,3,9,11/15/2013,2,CLOSE,09/04/2014
6592002,37766,1,MANHATTAN,8,WEST 108 STREET,10025,1843,40,49,7,11/15/2013,2,CLOSE,08/02/2014
6591307,949821,4,QUEENS,177-14,129 AVENUE,11434,12538,156,1FLR,12,11/15/2013,2,CLOSE,07/14/2014
6591489,422696,4,QUEENS,22-75,35 STREET,11105,822,1,C9,1,11/15/2013,2,CLOSE,07/14/2014
6592329,586,1,MANHATTAN,375,1 AVENUE,10010,927,32,3A,6,11/16/2013,2,CLOSE,07/12/2014
6593113,640314,4,QUEENS,83-32,BRITTON AVENUE,11373,1517,119,1,4,11/17/2013,2,CLOSE,07/17/2014
6594716,133648,3,BROOKLYN,77,7 AVENUE,11217,1063,7,3C,6,11/18/2013,2,CLOSE,09/04/2014
6594213,919141,4,QUEENS,68-01,150 STREET,11367,6540,3,1,8,11/18/2013,2,CLOSE,08/01/2014
6594755,33183,1,MANHATTAN,348,WEST 45 STREET,10036,1035,54,2D,4,11/18/2013,2,CLOSE,07/22/2014
6595037,650538,4,QUEENS,86-15,DONGAN AVENUE,11373,1580,41,BLDG,4,11/18/2013,2,CLOSE,07/29/2014
6594397,347753,3,BROOKLYN,570,OCEAN AVENUE,11226,5099,128,2A,14,11/18/2013,2,CLOSE,07/26/2014
6594020,443718,4,QUEENS,59-16,55 STREET,11378,2629,19,2L,5,11/18/2013,2,CLOSE,07/26/2014
6595741,661486,4,QUEENS,40-59,HAMPTON STREET,11373,1504,58,1F,4,11/19/2013,2,CLOSE,07/18/2014
6596762,36081,1,MANHATTAN,68,WEST 83 STREET,10024,1196,60,F43,7,11/19/2013,2,CLOSE,07/12/2014
6599069,228576,3,BROOKLYN,668,CROWN STREET,11213,1418,20,BSMT,9,11/20/2013,2,CLOSE,08/22/2014
6599185,484061,4,QUEENS,87-03,81 ROAD,11385,3849,34,2FL,5,11/20/2013,2,CLOSE,07/25/2014
6601418,806503,2,BRONX,525,EAST 146 STREET,10455,2272,5,NA,1,11/21/2013,2,CLOSE,02/20/2015
6601222,700803,4,QUEENS,19-10,UTOPIA PARKWAY,11357,5753,15,BLDG,7,11/21/2013,2,CLOSE,02/06/2015
6601080,950282,3,BROOKLYN,754,40 STREET,11232,919,26,2B,7,11/21/2013,2,CLOSE,09/04/2014
6601251,681864,4,QUEENS,57-52,MYRTLE AVENUE,11385,3573,25,3FLOO,5,11/21/2013,2,CLOSE,07/25/2014
6600957,601425,4,QUEENS,99-06,212 STREET,11429,10880,47,2R,13,11/21/2013,2,CLOSE,07/22/2014
6600951,601425,4,QUEENS,99-06,212 STREET,11429,10880,47,A,13,11/21/2013,2,CLOSE,07/11/2014
6601485,810848,4,QUEENS,170-20,130 AVENUE,11434,12495,2,9B5A,12,11/21/2013,2,CLOSE,07/29/2014
6600665,943820,4,QUEENS,92-14,175 STREET,11433,10214,113,1A,12,11/21/2013,2,CLOSE,07/22/2014
6602109,806985,2,BRONX,2715,THIRD AVENUE,10451,2324,1,4D,1,11/22/2013,2,CLOSE,02/20/2015
6602623,503228,4,QUEENS,237-09,93 ROAD,11426,7998,28,BSMT,13,11/22/2013,2,CLOSE,07/22/2014
6602236,509553,4,QUEENS,63-60,98 STREET,11374,2090,26,BLDG,6,11/22/2013,2,CLOSE,07/08/2014
6602497,536712,4,QUEENS,104-51,123 STREET,11419,9577,50,BGLD,10,11/22/2013,2,CLOSE,07/14/2014
6604925,24662,1,MANHATTAN,1445,MADISON AVENUE,10029,1605,24,6H,11,11/24/2013,2,CLOSE,02/20/2015
6605748,530615,4,QUEENS,89-42,116 STREET,11418,9323,25,1,9,11/24/2013,2,CLOSE,07/14/2014
6603052,459345,4,QUEENS,70-46,66 STREET,11385,3645,28,3R,5,11/24/2013,2,CLOSE,07/12/2014
6602970,5440,1,MANHATTAN,101,ALLEN STREET,10002,414,"7,501",4C,3,11/24/2013,2,CLOSE,07/19/2014
6609516,441613,4,QUEENS,108-59,53 AVENUE,11368,2008,51,BSMNT,4,11/25/2013,2,CLOSE,02/06/2015
6607805,424151,4,QUEENS,109-15,37 AVENUE,11368,1753,63,6C,3,11/25/2013,2,CLOSE,07/25/2014
6611297,511510,4,QUEENS,112-16,101 AVENUE,11419,9430,7,3FL,9,11/25/2013,2,CLOSE,07/25/2014
6612744,205716,3,BROOKLYN,1516,BEDFORD AVENUE,11216,1252,80,2B,8,11/26/2013,2,CLOSE,12/03/2013
6612952,304597,3,BROOKLYN,882,GREENE AVENUE,11221,1621,15,BLDG,3,11/26/2013,2,CLOSE,02/20/2015
6614052,809107,3,BROOKLYN,1620,PACIFIC STREET,11213,1341,12,NA,8,11/26/2013,2,CLOSE,02/20/2015
6612585,91996,2,BRONX,2232,LIGHT STREET,10466,4950,42,1,12,11/26/2013,2,CLOSE,12/10/2014
6612602,91996,2,BRONX,2232,LIGHT STREET,10466,4950,42,1,12,11/26/2013,2,CLOSE,12/10/2014
6613083,142819,3,BROOKLYN,4125,18 AVENUE,11218,5416,25,FLR2,14,11/26/2013,2,CLOSE,10/10/2014
6612509,383650,3,BROOKLYN,374,UNION STREET,11231,436,30,4,6,11/26/2013,2,CLOSE,09/09/2014
6612758,228864,3,BROOKLYN,313,CUMBERLAND STREET,11238,2119,1,2B,2,11/26/2013,2,CLOSE,08/27/2014
6612027,811268,4,QUEENS,8200,SHORE FRONT PARKWAY,11693,16130,1,11E,14,11/26/2013,2,CLOSE,08/11/2014
6613631,835345,3,BROOKLYN,5737,KINGS HIGHWAY,11203,4705,22,3A,17,11/26/2013,2,CLOSE,08/02/2014
6614125,950482,4,QUEENS,106-16,JAMAICA AVENUE,11418,9289,36,2R,9,11/26/2013,2,CLOSE,07/25/2014
6615352,947587,1,MANHATTAN,50,LISPENARD STREET,10013,194,"7,506",3,1,11/27/2013,2,CLOSE,09/20/2014
6616191,302318,3,BROOKLYN,363,GRAND AVENUE,11238,1969,93,3B,2,11/27/2013,2,CLOSE,08/26/2014
6615759,505910,4,QUEENS,35-51,95 STREET,11372,1469,50,A1,3,11/27/2013,2,CLOSE,07/23/2014
6614936,691369,4,QUEENS,120-10,ROCKAWAY BEACH BOULEVARD,11694,16216,27,402,14,11/27/2013,2,CLOSE,07/08/2014
6615765,693145,4,QUEENS,102-28,RUSSELL STREET,11414,14238,"1,051",PVT,10,11/27/2013,2,CLOSE,07/23/2014
6615314,561284,4,QUEENS,72-60,150 STREET,11367,6681,1,3H,8,11/27/2013,2,CLOSE,07/18/2014
6615394,810629,4,QUEENS,153-32,73 AVENUE,11367,6807,2,2G,8,11/27/2013,2,CLOSE,07/15/2014
6614961,346408,3,BROOKLYN,2036,NOSTRAND AVENUE,11210,5252,44,1G,14,11/27/2013,2,CLOSE,07/04/2014
6616630,944323,4,QUEENS,29-50,137 STREET,11354,4371,8,5L,7,11/28/2013,2,CLOSE,10/15/2014
6618188,479692,4,QUEENS,67-69,78 STREET,11379,3778,1,3F,5,11/29/2013,2,CLOSE,10/31/2014
6618886,208133,3,BROOKLYN,1046,BERGEN STREET,11216,1219,18,4D,8,11/29/2013,2,CLOSE,09/04/2014
6619170,648751,4,QUEENS,84-53,DANA COURT,11379,2999,28,2E,5,11/29/2013,2,CLOSE,07/29/2014
6618155,9163,1,MANHATTAN,360,CENTRAL PARK WEST,10025,1209,"7,502",16K,7,11/29/2013,2,CLOSE,07/01/2014
6619908,642305,4,QUEENS,59-21,CALLOWAY STREET,11368,1949,90,B2,4,11/30/2013,2,CLOSE,03/24/2015
6620336,577747,4,QUEENS,134-59,174 STREET,11434,12569,49,2FL,12,11/30/2013,2,CLOSE,03/13/2015
6620433,501685,4,QUEENS,104-20,92 AVENUE,11418,9312,10,FLR2,9,11/30/2013,2,CLOSE,02/24/2015
6621302,12106,1,MANHATTAN,604,EAST 14 STREET,10009,396,10,5F,3,12/01/2013,2,CLOSE,02/20/2015
6621887,363992,3,BROOKLYN,809,ROGERS AVENUE,11226,5091,5,2R,17,12/01/2013,2,CLOSE,07/29/2014
6621382,878413,1,MANHATTAN,11,EAST 1 STREET,10003,456,7,802,3,12/01/2013,2,CLOSE,07/19/2014
6622864,519573,4,QUEENS,48-08,108 STREET,11368,1992,43,3C,4,12/02/2013,2,CLOSE,10/16/2014
6622993,511687,4,QUEENS,130-07,101 AVENUE,11419,9476,29,BSMT,9,12/02/2013,2,CLOSE,07/22/2014
6622880,245748,3,BROOKLYN,625,MARLBOROUGH ROAD,11226,5236,40,2E,14,12/02/2013,2,CLOSE,07/08/2014
6623204,810657,4,QUEENS,147-33,76 AVENUE,11367,6684,2,2A,8,12/02/2013,2,CLOSE,07/18/2014
6623129,424681,4,QUEENS,96-10,37 AVENUE,11368,1759,1,EA,3,12/02/2013,2,CLOSE,07/25/2014
6626073,521062,4,QUEENS,109-19,109 STREET,11420,11476,27,2B,10,12/03/2013,2,CLOSE,02/24/2015
6625898,949240,4,QUEENS,2-14,50 AVENUE,11101,16,8,201W,2,12/03/2013,2,CLOSE,01/27/2015
6626163,652799,4,QUEENS,84-11,ELMHURST AVENUE,11373,1518,83,6A,4,12/03/2013,2,CLOSE,01/06/2015
6626849,19797,1,MANHATTAN,137,EAST 117 STREET,10035,1645,15,4E,11,12/03/2013,2,CLOSE,10/21/2014
6626650,296017,3,BROOKLYN,789,FRANKLIN AVENUE,11238,1252,6,3A,8,12/03/2013,2,CLOSE,09/04/2014
6625940,243980,3,BROOKLYN,9,ARGYLE ROAD,11218,5074,60,4B,14,12/03/2013,2,CLOSE,08/19/2014
6626239,519641,4,QUEENS,59-30,108 STREET,11368,1964,1,5B,4,12/03/2013,2,CLOSE,08/11/2014
6626213,422487,4,QUEENS,78-12,35 AVENUE,11372,1278,1,3L,3,12/03/2013,2,CLOSE,07/23/2014
6626235,693796,4,QUEENS,65-62,SAUNDERS STREET,11374,3087,21,BLDG,6,12/03/2013,2,CLOSE,07/14/2014
6627490,673186,4,QUEENS,35-20,LEVERICH STREET,11372,1270,"7,501",A701,3,12/04/2013,2,CLOSE,03/27/2015
6627486,243553,3,BROOKLYN,1915,EAST 13 STREET,11229,7292,82,BSMNT,15,12/04/2013,2,CLOSE,07/29/2014
6627567,497670,4,QUEENS,248-11,89 AVENUE,11426,8665,72,1,13,12/04/2013,2,CLOSE,07/22/2014
6629582,291239,3,BROOKLYN,3523,FARRAGUT ROAD,11210,4999,1,1,17,12/05/2013,2,CLOSE,09/04/2014
6629451,530530,4,QUEENS,83-84,116 STREET,11418,9209,49,6Q,9,12/05/2013,2,CLOSE,07/14/2014
6628770,563089,4,QUEENS,42-33,155 STREET,11355,5385,11,4A,7,12/05/2013,2,CLOSE,07/29/2014
6629029,574768,4,QUEENS,89-07,169 STREET,11432,9803,15,4G,12,12/05/2013,2,CLOSE,07/10/2014
6629754,518012,4,QUEENS,160-20,107 AVENUE,11433,10139,4,1,12,12/05/2013,2,CLOSE,07/22/2014
6629193,458510,4,QUEENS,99-49,66 AVENUE,11374,2116,56,2,6,12/05/2013,2,CLOSE,07/14/2014
6629656,422650,4,QUEENS,22-15,35 STREET,11105,822,126,1,1,12/05/2013,2,CLOSE,07/10/2014
6630033,919141,4,QUEENS,68-01,150 STREET,11367,6540,3,1,8,12/05/2013,2,CLOSE,07/12/2014
6629778,413254,4,QUEENS,21-19,27 STREET,11105,857,25,B2,1,12/05/2013,2,CLOSE,07/10/2014
6629508,549828,4,QUEENS,90-25,138 PLACE,11435,9978,34,D4,12,12/05/2013,2,CLOSE,07/25/2014
6630417,902800,3,BROOKLYN,3044,AVENUE V,11229,7389,1,6E,15,12/06/2013,2,CLOSE,02/20/2015
6630381,10979,1,MANHATTAN,519,EAST 6 STREET,10009,402,56,3,3,12/06/2013,2,CLOSE,07/04/2014
6630579,445364,4,QUEENS,98-40,57 AVENUE,11368,1918,75,18A,4,12/06/2013,2,CLOSE,07/04/2014
6630803,916836,4,QUEENS,245-40,77 CRESCENT,11426,8492,2,A,13,12/06/2013,2,CLOSE,07/12/2014
6630646,268875,3,BROOKLYN,1035,EAST 53 STREET,11234,7737,20,1FL,18,12/06/2013,2,CLOSE,07/22/2014
6632172,19843,1,MANHATTAN,212,EAST 117 STREET,10035,1666,41,3B,11,12/07/2013,2,CLOSE,12/09/2013
6632062,875430,4,QUEENS,30-85,VERNON BOULEVARD,11102,504,"7,501",PHB,1,12/07/2013,2,CLOSE,03/03/2015
6631913,214825,3,BROOKLYN,440,BROOKLYN AVENUE,11225,1317,41,5D,9,12/07/2013,2,CLOSE,09/04/2014
6632111,855116,3,BROOKLYN,369,KOSCIUSZKO STREET,11221,1782,142,FLR2,3,12/07/2013,2,CLOSE,09/04/2014
6634128,19843,1,MANHATTAN,212,EAST 117 STREET,10035,1666,41,3B,11,12/08/2013,2,CLOSE,12/09/2013
6633546,19843,1,MANHATTAN,212,EAST 117 STREET,10035,1666,41,4B,11,12/08/2013,2,CLOSE,12/09/2013
6634643,385,1,MANHATTAN,196,1 AVENUE,10009,439,8,NA,3,12/08/2013,2,CLOSE,07/08/2014
6634989,19843,1,MANHATTAN,212,EAST 117 STREET,10035,1666,41,5C,11,12/09/2013,2,CLOSE,12/12/2013
6635523,642305,4,QUEENS,59-21,CALLOWAY STREET,11368,1949,90,6L,4,12/09/2013,2,CLOSE,02/06/2015
6635999,929455,2,BRONX,361,EAST 161 STREET,10451,2408,1,3H,3,12/09/2013,2,CLOSE,01/01/2015
6635276,380440,3,BROOKLYN,316,SUYDAM STREET,11237,3220,28,2L,4,12/09/2013,2,CLOSE,08/12/2014
6635244,367892,3,BROOKLYN,235,SCHENECTADY AVENUE,11213,1378,1,3,8,12/09/2013,2,CLOSE,08/22/2014
6635943,7874,1,MANHATTAN,2647,BROADWAY,10025,1872,52,2NW,7,12/09/2013,2,CLOSE,07/08/2014
6635873,659486,4,QUEENS,71-04,GRAND AVENUE,11378,2797,18,3FT,5,12/09/2013,2,CLOSE,07/31/2014
6635605,694083,4,QUEENS,7-11,SEAGIRT AVENUE,11691,15610,1,8A,14,12/09/2013,2,CLOSE,07/22/2014
6636601,646437,4,QUEENS,1894,CORNELIA STREET,11385,3473,30,3R,5,12/09/2013,2,CLOSE,07/25/2014
6637848,490250,4,QUEENS,80-19,85 DRIVE,11421,8851,267,1,9,12/10/2013,2,CLOSE,02/12/2015
6637889,27612,1,MANHATTAN,40,SHERMAN AVENUE,10040,2175,92,C4,12,12/10/2013,2,CLOSE,10/10/2014
6637851,421502,4,QUEENS,90-10,34 AVENUE,11372,1451,1,BLG,3,12/10/2013,2,CLOSE,10/22/2014
6638356,445349,4,QUEENS,96-04,57 AVENUE,11368,1918,45,9B,4,12/10/2013,2,CLOSE,07/08/2014
6638551,681119,4,QUEENS,213-19,MURDOCK AVENUE,11429,11136,45,2FL,13,12/10/2013,2,CLOSE,07/22/2014
6640241,551103,4,QUEENS,133-15,140 STREET,11436,12086,85,REAR,12,12/11/2013,2,CLOSE,03/28/2015
6640981,12608,1,MANHATTAN,143,EAST 23 STREET,10010,879,27,8G,6,12/11/2013,2,CLOSE,10/22/2014
6641479,337068,3,BROOKLYN,374,MIDWOOD STREET,11225,4801,32,2F,9,12/11/2013,2,CLOSE,09/04/2014
6639449,694457,4,QUEENS,404,SENECA AVENUE,11385,3429,21,2L,5,12/11/2013,2,CLOSE,07/22/2014
6643073,91399,2,BRONX,1015,LEGGETT AVENUE,10455,2720,1,5A,2,12/12/2013,2,CLOSE,10/08/2016
6643939,495003,4,QUEENS,88-16,87 STREET,11421,8921,15,1,9,12/12/2013,2,CLOSE,10/02/2014
6644219,413164,4,QUEENS,4-21,27 AVENUE,11102,909,1,1F,1,12/12/2013,2,CLOSE,08/08/2014
6645198,706048,4,QUEENS,64-35,YELLOWSTONE BOULEVARD,11375,2150,1,5A,6,12/12/2013,2,CLOSE,07/08/2014
6643615,256562,3,BROOKLYN,150,EAST 31 STREET,11226,4901,40,BSMT,17,12/12/2013,2,CLOSE,07/08/2014
6644632,694647,4,QUEENS,930,SENECA AVENUE,11385,3561,30,3R,5,12/12/2013,2,CLOSE,07/25/2014
6644621,25758,1,MANHATTAN,14,MT MORRIS PARK WEST,10027,1720,54,8,10,12/12/2013,2,CLOSE,07/07/2014
6646855,805051,1,MANHATTAN,2144,MADISON AVENUE,10037,1757,1,3E,11,12/13/2013,2,CLOSE,02/20/2015
6647917,645292,4,QUEENS,8-05,COLLEGE POINT BOULEVARD,11356,3964,37,1STF,7,12/13/2013,2,CLOSE,02/06/2015
6646692,400155,4,QUEENS,27-01,8 STREET,11102,510,20,604,1,12/13/2013,2,CLOSE,01/26/2015
6648090,108738,2,BRONX,1220,SENECA AVENUE,10474,2762,51,6E,2,12/13/2013,2,CLOSE,10/31/2014
6647540,348557,3,BROOKLYN,349,OCEAN PARKWAY,11218,5375,82,C12,12,12/13/2013,2,CLOSE,09/04/2014
6647571,306685,3,BROOKLYN,1271,HANCOCK STREET,11221,3391,49,2,4,12/13/2013,2,CLOSE,08/22/2014
6645474,497350,4,QUEENS,162-05,89 AVENUE,11432,9768,1,5J,12,12/13/2013,2,CLOSE,07/22/2014
6646676,693442,4,QUEENS,140-40,SANFORD AVENUE,11355,5180,35,BLDG,7,12/13/2013,2,CLOSE,07/18/2014
6647393,805806,1,MANHATTAN,70,WEST 95 STREET,10025,1208,1,3H,7,12/13/2013,2,CLOSE,07/01/2014
6647220,510598,4,QUEENS,62-10,99 STREET,11374,2093,133,2E,6,12/13/2013,2,CLOSE,07/25/2014
6650462,10813,1,MANHATTAN,313,EAST 5 STREET,10003,447,51,6G,3,12/14/2013,2,CLOSE,10/22/2014
6650077,313517,3,BROOKLYN,293,HOOPER STREET,11211,2463,24,7,1,12/14/2013,2,CLOSE,09/04/2014
6649083,650845,4,QUEENS,50-04,DOUGLASTON PARKWAY,11362,8171,28,2,11,12/14/2013,2,CLOSE,07/22/2014
6651694,214344,3,BROOKLYN,918,BROADWAY,11206,1584,21,203,3,12/15/2013,2,CLOSE,09/04/2014
6651617,512390,4,QUEENS,33-46,101 STREET,11368,1715,34,BSMT,3,12/15/2013,2,CLOSE,08/08/2014
6650773,820637,3,BROOKLYN,44,CHRISTOPHER AVENUE,11212,3692,22,1B,16,12/15/2013,2,CLOSE,07/22/2014
6653282,671741,4,QUEENS,122-25,LAKEVIEW LANE,11434,12254,17,1,12,12/16/2013,2,CLOSE,03/20/2015
6653500,515770,4,QUEENS,37-29,104 STREET,11368,1772,44,1A,3,12/16/2013,2,CLOSE,01/25/2015
6653615,948035,1,MANHATTAN,218,WEST 124 STREET,10027,1929,57,3A,10,12/16/2013,2,CLOSE,11/19/2014
6655917,642720,4,QUEENS,41-06,CASE STREET,11373,1565,6,1A,4,12/16/2013,2,CLOSE,08/12/2014
6655673,659486,4,QUEENS,71-04,GRAND AVENUE,11378,2797,18,3FT,5,12/16/2013,2,CLOSE,07/31/2014
6653525,648608,4,QUEENS,996,CYPRESS AVENUE,11385,3551,63,BLDG,5,12/16/2013,2,CLOSE,07/14/2014
6657968,432674,4,QUEENS,24-56,44 STREET,11103,689,44,6D,1,12/17/2013,2,CLOSE,07/22/2014
6657365,697101,4,QUEENS,20-70,STEINWAY STREET,11105,809,58,3R,1,12/17/2013,2,CLOSE,07/25/2014
6657295,422154,4,QUEENS,151-10,35 AVENUE,11354,5263,10,BLDG,7,12/17/2013,2,CLOSE,07/28/2014
6657900,432674,4,QUEENS,24-56,44 STREET,11103,689,44,6D,1,12/17/2013,2,CLOSE,07/22/2014
6660574,64103,2,BRONX,862,EAST 156 STREET,10455,2687,16,1,2,12/18/2013,2,CLOSE,07/07/2015
6660198,158255,3,BROOKLYN,835,55 STREET,11220,5672,67,1FL,12,12/18/2013,2,CLOSE,08/07/2014
6659580,693468,4,QUEENS,144-07,SANFORD AVENUE,11355,5051,1,3E,7,12/18/2013,2,CLOSE,07/18/2014
6659433,379351,3,BROOKLYN,419,MARCUS GARVEY BOULEVARD,11216,1664,5,2B,3,12/18/2013,2,CLOSE,07/08/2014
6660015,646437,4,QUEENS,1894,CORNELIA STREET,11385,3473,30,1R,5,12/18/2013,2,CLOSE,07/25/2014
6662079,213938,3,BROOKLYN,1641,BROADWAY,11207,3414,2,3R,4,12/19/2013,2,CLOSE,08/12/2014
6661773,909902,4,QUEENS,142-47,HORACE HARDING EXPRESSWAY,11367,6410,3,3FL,7,12/19/2013,2,CLOSE,08/01/2014
6661339,37227,1,MANHATTAN,24,WEST 96 STREET,10025,1209,42,1R,7,12/19/2013,2,CLOSE,07/01/2014
6662158,371769,3,BROOKLYN,85,SOMERS STREET,11233,1539,63,3FL,16,12/19/2013,2,CLOSE,07/08/2014
6661196,433244,4,QUEENS,137-60,45 AVENUE,11355,5146,36,1J,7,12/19/2013,2,CLOSE,07/18/2014
6663829,806123,1,MANHATTAN,242,WEST 62 STREET,10023,1154,101,NA,7,12/20/2013,2,CLOSE,02/20/2015
6662898,205489,3,BROOKLYN,1084,BEDFORD AVENUE,11216,1968,32,BLDG,3,12/20/2013,2,CLOSE,09/09/2014
6663089,347219,3,BROOKLYN,1436,OCEAN AVENUE,11230,6712,74,3N,14,12/20/2013,2,CLOSE,07/01/2014
6663373,509863,4,QUEENS,211-40,99 AVENUE,11429,10880,44,1,13,12/20/2013,2,CLOSE,07/19/2014
6663158,668131,4,QUEENS,195-24,JAMAICA AVENUE,11423,10823,31,A1,12,12/20/2013,2,CLOSE,07/17/2014
6664286,338654,3,BROOKLYN,10,MONROE PLACE,11201,238,34,4,2,12/21/2013,2,CLOSE,08/27/2014
6664919,327498,3,BROOKLYN,749,LINDEN BOULEVARD,11203,4656,35,3F,17,12/22/2013,2,CLOSE,09/04/2014
6665778,491410,4,QUEENS,102-05,86 AVENUE,11418,9185,48,B4,9,12/23/2013,2,CLOSE,07/25/2014
6665523,27219,1,MANHATTAN,230,RIVERSIDE DRIVE,10025,1253,"7,503",10L,7,12/23/2013,2,CLOSE,07/12/2014
6665754,22804,1,MANHATTAN,202,HESTER STREET,10013,207,12,2,2,12/23/2013,2,CLOSE,07/11/2014
6667138,890651,4,QUEENS,31-10,23 STREET,11106,552,"7,501",6D,1,12/24/2013,2,CLOSE,08/01/2014
6666683,425305,4,QUEENS,32-17,37 STREET,11103,655,31,5,1,12/24/2013,2,CLOSE,07/28/2014
6667611,7147,1,MANHATTAN,335,BLEECKER STREET,10014,619,51,1,2,12/24/2013,2,CLOSE,07/13/2014
6668470,875833,2,BRONX,810,EAST 152 STREET,10455,2664,61,104,1,12/25/2013,2,CLOSE,08/04/2015
6669989,467739,4,QUEENS,58-39,71 STREET,11378,2820,54,3,5,12/26/2013,2,CLOSE,08/04/2015
6669945,217658,3,BROOKLYN,1577,CARROLL STREET,11213,1407,43,1B,9,12/26/2013,2,CLOSE,09/30/2014
6672132,64078,2,BRONX,737,EAST 156 STREET,10455,2646,36,1A,1,12/27/2013,2,CLOSE,07/25/2015
6671182,110181,2,BRONX,643,SOUTHERN BOULEVARD,10455,2683,94,2E,2,12/27/2013,2,CLOSE,07/16/2015
6672201,115223,2,BRONX,497,TINTON AVENUE,10455,2581,41,1FL,1,12/27/2013,2,CLOSE,06/18/2015
6671804,116816,2,BRONX,1628,DR M L KING JR BOULEVARD,10453,2876,82,2A,5,12/27/2013,2,CLOSE,10/22/2014
6671960,57878,2,BRONX,928,COLLEGE AVENUE,10456,2423,53,2C,4,12/27/2013,2,CLOSE,10/09/2014
6671007,37267,1,MANHATTAN,305,WEST 97 STREET,10025,1887,48,3A,7,12/27/2013,2,CLOSE,10/18/2014
6671791,373768,3,BROOKLYN,1507,ST JOHNS PLACE,11213,1380,1,B1,8,12/27/2013,2,CLOSE,07/07/2014
6672957,8095,1,MANHATTAN,364,BROADWAY,10013,172,1,BDLG,1,12/28/2013,2,CLOSE,07/31/2014
6673315,419150,4,QUEENS,23-51,32 STREET,11105,835,98,A3,1,12/28/2013,2,CLOSE,07/22/2014
6674293,811744,4,QUEENS,65-43,PARSONS BOULEVARD,11365,6790,1,2D,8,12/30/2013,2,CLOSE,08/05/2014
6674379,919141,4,QUEENS,68-01,150 STREET,11367,6540,3,1,8,12/30/2013,2,CLOSE,07/12/2014
6676403,110200,2,BRONX,763,SOUTHERN BOULEVARD,10455,2720,88,6A,2,12/31/2013,2,CLOSE,06/04/2016
6676431,213826,3,BROOKLYN,1425,BROADWAY,11221,3357,5,1,4,12/31/2013,2,CLOSE,09/04/2014
6676575,411766,4,QUEENS,38-05,CRESCENT STREET,11101,387,12,2A,1,12/31/2013,2,CLOSE,07/09/2014
